     2.10           N: GPS NAV DATA                         RINEX VERSION / TYPE
teqc  2009Mar23                         20111116 16:04:30UTCPGM / RUN BY / DATE
Linux 2.4.20-8|Pentium IV|gcc -static|Linux|486/DX+         COMMENT
                                                            END OF HEADER
27 11 11 16 15 59 44.0 3.262762911618D-04 3.865352482535D-12 0.000000000000D+00
    1.000000000000D+00 4.484375000000D+01 4.020881771580D-09-2.748838165332D+00
    2.378597855568D-06 2.182221598923D-02 2.799555659294D-06 5.153598424911D+03
    3.167840000000D+05 1.508742570877D-07-9.029060062765D-01 2.123415470123D-07
    9.816107853550D-01 3.293437500000D+02-1.179744805381D+00-7.790324498285D-09
    2.585821995580D-10 1.000000000000D+00 1.662000000000D+03 0.000000000000D+00
    2.000000000000D+00 6.300000000000D+01-4.190951585770D-09 1.000000000000D+00
    3.133080000000D+05 4.000000000000D+00
20 11 11 16 16  0  0.0 5.622394382954D-05 6.821210263297D-13 0.000000000000D+00
    2.600000000000D+01 8.031250000000D+00 5.350222858257D-09-3.827005574258D-01
    3.948807716370D-07 4.759861971252D-03 7.595866918564D-06 5.153556137085D+03
    3.168000000000D+05-6.332993507385D-08-2.997170332083D+00 1.303851604462D-08
    9.320706708847D-01 2.162500000000D+02 1.258536335501D+00-8.509640174956D-09
   -4.475186409477D-10 1.000000000000D+00 1.662000000000D+03 0.000000000000D+00
    2.000000000000D+00 0.000000000000D+00-7.916241884232D-09 2.600000000000D+01
    3.137280000000D+05 4.000000000000D+00
32 11 11 16 15 59 44.0-3.626975230873D-04-6.025402399246D-12 0.000000000000D+00
    1.200000000000D+01 1.359375000000D+01 4.691623996400D-09 1.887455665316D+00
    7.599592208862D-07 1.212534215301D-02 7.983297109604D-06 5.153523542404D+03
    3.167840000000D+05 1.043081283569D-07-2.868850519574D+00 1.154839992523D-07
    9.536952187196D-01 2.180000000000D+02-6.861117463939D-01-7.963188841636D-09
   -5.768097407267D-10 1.000000000000D+00 1.662000000000D+03 0.000000000000D+00
    2.000000000000D+00 0.000000000000D+00-2.793967723846D-09 1.200000000000D+01
    3.142980000000D+05 4.000000000000D+00
12 11 11 16 16  0  0.0 3.508199006319D-05 2.273736754432D-12 0.000000000000D+00
    7.000000000000D+01-9.693750000000D+01 4.245176828655D-09 9.627404748508D-01
   -5.068257451057D-06 3.606833633967D-03 6.476417183876D-06 5.153625732422D+03
    3.168000000000D+05 7.636845111847D-08 2.058272326390D-01 1.080334186554D-07
    9.776646077237D-01 2.680312500000D+02-6.994803818798D-02-8.019619763639D-09
   -5.857386840816D-11 1.000000000000D+00 1.662000000000D+03 0.000000000000D+00
    2.000000000000D+00 0.000000000000D+00-1.210719347000D-08 7.000000000000D+01
    3.148980000000D+05 4.000000000000D+00
 4 11 11 16 16  0  0.0 5.761627107859D-06 1.125499693444D-11 0.000000000000D+00
    2.800000000000D+01 1.590625000000D+01 5.484157008581D-09-4.665334846494D-01
    9.480863809586D-07 9.983071009628D-03 6.455928087234D-06 5.153732458115D+03
    3.168000000000D+05 9.313225746155D-09 2.280278388462D+00 1.564621925354D-07
    9.377118000318D-01 2.420312500000D+02 7.979782714094D-01-8.593215084758D-09
    6.143113028173D-11 1.000000000000D+00 1.662000000000D+03 0.000000000000D+00
    2.000000000000D+00 0.000000000000D+00-6.519258022308D-09 2.800000000000D+01
    3.167880000000D+05 4.000000000000D+00
